CCSDS_OMM_VERS = 2.0
CREATION_DATE  = 
ORIGINATOR     = 

OBJECT_NAME    = UNKNOWN
OBJECT_ID      = 
CENTER_NAME    = EARTH
REF_FRAME      = TEME
TIME_SYSTEM    = UTC
MEAN_ELEMENT_THEORY = SGP/SGP4

EPOCH          = 2026-02-14T21:30:43.705152
MEAN_MOTION    = 13.46156312
ECCENTRICITY   = .0119696
INCLINATION    = 102.1696
RA_OF_ASC_NODE = 29.7762
ARG_OF_PERICENTER = 245.5185
MEAN_ANOMALY   = 113.3416

EPHEMERIS_TYPE = 0
CLASSIFICATION_TYPE = U
NORAD_CAT_ID   = 85047
ELEMENT_SET_NO = 999
REV_AT_EPOCH   = 58528
BSTAR          = .15821E-1
MEAN_MOTION_DOT = .9847E-4
MEAN_MOTION_DDOT = 0

CCSDS_OMM_VERS = 2.0
CREATION_DATE  = 
ORIGINATOR     = 

OBJECT_NAME    = UNKNOWN
OBJECT_ID      = 
CENTER_NAME    = EARTH
REF_FRAME      = TEME
TIME_SYSTEM    = UTC
MEAN_ELEMENT_THEORY = SGP/SGP4

EPOCH          = 2026-02-16T13:03:29.884032
MEAN_MOTION    = 12.77516676
ECCENTRICITY   = .0269054
INCLINATION    = 102.3941
RA_OF_ASC_NODE = 42.3660
ARG_OF_PERICENTER = 60.5502
MEAN_ANOMALY   = 63.2671

EPHEMERIS_TYPE = 0
CLASSIFICATION_TYPE = U
NORAD_CAT_ID   = 85061
ELEMENT_SET_NO = 999
REV_AT_EPOCH   = 56418
BSTAR          = .15328E-1
MEAN_MOTION_DOT = .387E-4
MEAN_MOTION_DDOT = 0

CCSDS_OMM_VERS = 2.0
CREATION_DATE  = 
ORIGINATOR     = 

OBJECT_NAME    = UNKNOWN
OBJECT_ID      = 
CENTER_NAME    = EARTH
REF_FRAME      = TEME
TIME_SYSTEM    = UTC
MEAN_ELEMENT_THEORY = SGP/SGP4

EPOCH          = 2026-02-16T20:05:54.252672
MEAN_MOTION    = 14.40777872
ECCENTRICITY   = .0013565
INCLINATION    = 74.0443
RA_OF_ASC_NODE = 100.5858
ARG_OF_PERICENTER = 308.8987
MEAN_ANOMALY   = 172.2845

EPHEMERIS_TYPE = 0
CLASSIFICATION_TYPE = U
NORAD_CAT_ID   = 85100
ELEMENT_SET_NO = 999
REV_AT_EPOCH   = 64286
BSTAR          = .11153E-3
MEAN_MOTION_DOT = .331E-5
MEAN_MOTION_DDOT = 0

CCSDS_OMM_VERS = 2.0
CREATION_DATE  = 
ORIGINATOR     = 

OBJECT_NAME    = UNKNOWN
OBJECT_ID      = 
CENTER_NAME    = EARTH
REF_FRAME      = TEME
TIME_SYSTEM    = UTC
MEAN_ELEMENT_THEORY = SGP/SGP4

EPOCH          = 2026-02-15T06:16:45.999264
MEAN_MOTION    = 13.73000110
ECCENTRICITY   = .0010124
INCLINATION    = 100.0522
RA_OF_ASC_NODE = 155.2934
ARG_OF_PERICENTER = 201.9691
MEAN_ANOMALY   = 186.7029

EPHEMERIS_TYPE = 0
CLASSIFICATION_TYPE = U
NORAD_CAT_ID   = 85106
ELEMENT_SET_NO = 999
REV_AT_EPOCH   = 61192
BSTAR          = .80197E-3
MEAN_MOTION_DOT = .692E-5
MEAN_MOTION_DDOT = 0

CCSDS_OMM_VERS = 2.0
CREATION_DATE  = 
ORIGINATOR     = 

OBJECT_NAME    = UNKNOWN
OBJECT_ID      = 
CENTER_NAME    = EARTH
REF_FRAME      = TEME
TIME_SYSTEM    = UTC
MEAN_ELEMENT_THEORY = SGP/SGP4

EPOCH          = 2026-02-17T10:03:38.063520
MEAN_MOTION    = 14.82138993
ECCENTRICITY   = .0008434
INCLINATION    = 98.4014
RA_OF_ASC_NODE = 280.5603
ARG_OF_PERICENTER = 301.9300
MEAN_ANOMALY   = 58.1090

EPHEMERIS_TYPE = 0
CLASSIFICATION_TYPE = U
NORAD_CAT_ID   = 85151
ELEMENT_SET_NO = 999
REV_AT_EPOCH   = 48939
BSTAR          = .31419E-2
MEAN_MOTION_DOT = .25052E-3
MEAN_MOTION_DDOT = 0

CCSDS_OMM_VERS = 2.0
CREATION_DATE  = 
ORIGINATOR     = 

OBJECT_NAME    = UNKNOWN
OBJECT_ID      = 
CENTER_NAME    = EARTH
REF_FRAME      = TEME
TIME_SYSTEM    = UTC
MEAN_ELEMENT_THEORY = SGP/SGP4

EPOCH          = 2026-02-11T15:03:22.155264
MEAN_MOTION    = 13.71653162
ECCENTRICITY   = .0218363
INCLINATION    = 99.8587
RA_OF_ASC_NODE = 190.2901
ARG_OF_PERICENTER = 158.7565
MEAN_ANOMALY   = 264.1202

EPHEMERIS_TYPE = 0
CLASSIFICATION_TYPE = U
NORAD_CAT_ID   = 85210
ELEMENT_SET_NO = 999
REV_AT_EPOCH   = 61050
BSTAR          = .41726E-3
MEAN_MOTION_DOT = .4E-5
MEAN_MOTION_DDOT = 0

CCSDS_OMM_VERS = 2.0
CREATION_DATE  = 
ORIGINATOR     = 

OBJECT_NAME    = UNKNOWN
OBJECT_ID      = 
CENTER_NAME    = EARTH
REF_FRAME      = TEME
TIME_SYSTEM    = UTC
MEAN_ELEMENT_THEORY = SGP/SGP4

EPOCH          = 2026-02-16T17:10:46.075584
MEAN_MOTION    = 14.37529453
ECCENTRICITY   = .0205903
INCLINATION    = 98.0250
RA_OF_ASC_NODE = 142.8024
ARG_OF_PERICENTER = 288.8894
MEAN_ANOMALY   = 69.0072

EPHEMERIS_TYPE = 0
CLASSIFICATION_TYPE = U
NORAD_CAT_ID   = 85217
ELEMENT_SET_NO = 999
REV_AT_EPOCH   = 63733
BSTAR          = .55068E-3
MEAN_MOTION_DOT = .2059E-4
MEAN_MOTION_DDOT = 0

CCSDS_OMM_VERS = 2.0
CREATION_DATE  = 
ORIGINATOR     = 

OBJECT_NAME    = UNKNOWN
OBJECT_ID      = 
CENTER_NAME    = EARTH
REF_FRAME      = TEME
TIME_SYSTEM    = UTC
MEAN_ELEMENT_THEORY = SGP/SGP4

EPOCH          = 2026-02-15T00:10:43.840704
MEAN_MOTION    = 14.01639379
ECCENTRICITY   = .0516015
INCLINATION    = 65.5327
RA_OF_ASC_NODE = 46.1558
ARG_OF_PERICENTER = 358.2559
MEAN_ANOMALY   = 1.6695

EPHEMERIS_TYPE = 0
CLASSIFICATION_TYPE = U
NORAD_CAT_ID   = 85237
ELEMENT_SET_NO = 999
REV_AT_EPOCH   = 61735
BSTAR          = .15977E-2
MEAN_MOTION_DOT = .7876E-4
MEAN_MOTION_DDOT = 0

CCSDS_OMM_VERS = 2.0
CREATION_DATE  = 
ORIGINATOR     = 

OBJECT_NAME    = UNKNOWN
OBJECT_ID      = 
CENTER_NAME    = EARTH
REF_FRAME      = TEME
TIME_SYSTEM    = UTC
MEAN_ELEMENT_THEORY = SGP/SGP4

EPOCH          = 2026-02-09T01:31:10.181856
MEAN_MOTION    = 13.88355158
ECCENTRICITY   = .0064098
INCLINATION    = 99.0664
RA_OF_ASC_NODE = 332.5904
ARG_OF_PERICENTER = 43.6046
MEAN_ANOMALY   = 21.8658

EPHEMERIS_TYPE = 0
CLASSIFICATION_TYPE = U
NORAD_CAT_ID   = 85238
ELEMENT_SET_NO = 999
REV_AT_EPOCH   = 61893
BSTAR          = .85569E-4
MEAN_MOTION_DOT = .61E-6
MEAN_MOTION_DDOT = 0

CCSDS_OMM_VERS = 2.0
CREATION_DATE  = 
ORIGINATOR     = 

OBJECT_NAME    = UNKNOWN
OBJECT_ID      = 
CENTER_NAME    = EARTH
REF_FRAME      = TEME
TIME_SYSTEM    = UTC
MEAN_ELEMENT_THEORY = SGP/SGP4

EPOCH          = 2026-02-16T10:21:20.381760
MEAN_MOTION    = 14.21709324
ECCENTRICITY   = .0223874
INCLINATION    = 97.9893
RA_OF_ASC_NODE = 49.7738
ARG_OF_PERICENTER = 110.0772
MEAN_ANOMALY   = 252.4654

EPHEMERIS_TYPE = 0
CLASSIFICATION_TYPE = U
NORAD_CAT_ID   = 85246
ELEMENT_SET_NO = 999
REV_AT_EPOCH   = 63240
BSTAR          = .42957E-3
MEAN_MOTION_DOT = .1179E-4
MEAN_MOTION_DDOT = 0

CCSDS_OMM_VERS = 2.0
CREATION_DATE  = 
ORIGINATOR     = 

OBJECT_NAME    = UNKNOWN
OBJECT_ID      = 
CENTER_NAME    = EARTH
REF_FRAME      = TEME
TIME_SYSTEM    = UTC
MEAN_ELEMENT_THEORY = SGP/SGP4

EPOCH          = 2026-02-17T08:48:37.338912
MEAN_MOTION    = 14.00334005
ECCENTRICITY   = .0050873
INCLINATION    = 100.4258
RA_OF_ASC_NODE = 98.6813
ARG_OF_PERICENTER = 64.6467
MEAN_ANOMALY   = 359.0354

EPHEMERIS_TYPE = 0
CLASSIFICATION_TYPE = U
NORAD_CAT_ID   = 85373
ELEMENT_SET_NO = 999
REV_AT_EPOCH   = 62145
BSTAR          = .14419E-2
MEAN_MOTION_DOT = .2103E-4
MEAN_MOTION_DDOT = 0

CCSDS_OMM_VERS = 2.0
CREATION_DATE  = 
ORIGINATOR     = 

OBJECT_NAME    = UNKNOWN
OBJECT_ID      = 
CENTER_NAME    = EARTH
REF_FRAME      = TEME
TIME_SYSTEM    = UTC
MEAN_ELEMENT_THEORY = SGP/SGP4

EPOCH          = 2026-02-02T17:05:00.983616
MEAN_MOTION    = 3.07857636
ECCENTRICITY   = .6775828
INCLINATION    = 51.2937
RA_OF_ASC_NODE = 156.4139
ARG_OF_PERICENTER = 239.1756
MEAN_ANOMALY   = 342.8295

EPHEMERIS_TYPE = 0
CLASSIFICATION_TYPE = U
NORAD_CAT_ID   = 85425
ELEMENT_SET_NO = 999
REV_AT_EPOCH   = 0
BSTAR          = 0
MEAN_MOTION_DOT = 0
MEAN_MOTION_DDOT = 0

