UNKNOWN                 
1 85047U          26045.89633918  .00009847  00000+0  15821-1 0  9993
2 85047 102.1696  29.7762 0119696 245.5185 113.3416 13.46156312585285
UNKNOWN                 
1 85061U          26047.54409588  .00003870  00000+0  15328-1 0  9999
2 85061 102.3941  42.3660 0269054  60.5502  63.2671 12.77516676564184
UNKNOWN                 
1 85100U          26047.83743348  .00000331  00000+0  11153-3 0  9993
2 85100  74.0443 100.5858 0013565 308.8987 172.2845 14.40777872642860
UNKNOWN                 
1 85106U          26046.26164351  .00000692  00000+0  80197-3 0  9990
2 85106 100.0522 155.2934 0010124 201.9691 186.7029 13.73000110611925
UNKNOWN                 
1 85151U          26048.41919055  .00025052  00000+0  31419-2 0  9997
2 85151  98.4014 280.5603 0008434 301.9300  58.1090 14.82138993489391
UNKNOWN                 
1 85210U          26042.62733976  .00000400  00000+0  41726-3 0  9999
2 85210  99.8587 190.2901 0218363 158.7565 264.1202 13.71653162610500
UNKNOWN                 
1 85217U          26047.71581106  .00002059  00000+0  55068-3 0  9993
2 85217  98.0250 142.8024 0205903 288.8894  69.0072 14.37529453637335
UNKNOWN                 
1 85237U          26046.00745186  .00007876  00000+0  15977-2 0  9992
2 85237  65.5327  46.1558 0516015 358.2559   1.6695 14.01639379617351
UNKNOWN                 
1 85238U          26040.06331229  .00000061  00000+0  85569-4 0  9997
2 85238  99.0664 332.5904 0064098  43.6046  21.8658 13.88355158618932
UNKNOWN                 
1 85246U          26047.43148590  .00001179  00000+0  42957-3 0  9995
2 85246  97.9893  49.7738 0223874 110.0772 252.4654 14.21709324632400
UNKNOWN                 
1 85373U          26048.36709883  .00002103  00000+0  14419-2 0  9996
2 85373 100.4258  98.6813 0050873  64.6467 359.0354 14.00334005621456
UNKNOWN                 
1 85425U          26033.71181694  .00000000  00000+0  00000+0 0  9993
2 85425  51.2937 156.4139 6775828 239.1756 342.8295  3.07857636    06
